{"type": "FeatureCollection", "features": [ {"type": "Feature", "properties": {"norad_id": 32350, "name": "FENGYUN 1C DEB", "group": "fengyun-1c-debris", "lat": -74.26079137088561, "lon": 56.690319129963115, "alt_km": 564.5369668209332, "timestamp": "2025-12-06T22:38:43.014449+00:00", "meta": {"OBJECT_NAME": "FENGYUN 1C DEB", "OBJECT_ID": "1999-025CYT", "EPOCH": "2025-12-05T20:31:39.778464", "MEAN_MOTION": 14.52477778, "ECCENTRICITY": 0.0267162, "INCLINATION": 98.2291, "RA_OF_ASC_NODE": 24.725, "ARG_OF_PERICENTER": 319.9483, "MEAN_ANOMALY": 38.2279, "EPHEMERIS_TYPE": 0, "CLASSIFICATION_TYPE": "U", "NORAD_CAT_ID": 32350, "ELEMENT_SET_NO": 999, "REV_AT_EPOCH": 97427, "BSTAR": 0.0012950671, "MEAN_MOTION_DOT": 8.414e-05, "MEAN_MOTION_DDOT": 0}, "tle": {"line1": "1 32350U 99025CYT 25339.85532151  .00008414  00000+0  12951-2 0  9996", "line2": "2 32350  98.2291  24.7250 0267162 319.9483  38.2279 14.52477778974279"}}, "geometry": {"type": "Point", "coordinates": [56.690319129963115, -74.26079137088561]}}, {"type": "Feature", "properties": {"norad_id": 32352, "name": "FENGYUN 1C DEB", "group": "fengyun-1c-debris", "lat": -76.53063319246931, "lon": 40.627755413074375, "alt_km": 732.8427826780435, "timestamp": "2025-12-06T22:38:43.014459+00:00", "meta": {"OBJECT_NAME": "FENGYUN 1C DEB", "OBJECT_ID": "1999-025CYV", "EPOCH": "2025-12-03T13:28:47.441280", "MEAN_MOTION": 14.41397629, "ECCENTRICITY": 0.01208838, "INCLINATION": 98.7762, "RA_OF_ASC_NODE": 257.3194, "ARG_OF_PERICENTER": 198.3056, "MEAN_ANOMALY": 161.3763, "EPHEMERIS_TYPE": 0, "CLASSIFICATION_TYPE": "U", "NORAD_CAT_ID": 32352, "ELEMENT_SET_NO": 999, "REV_AT_EPOCH": 65137, "BSTAR": 0.00035669846, "MEAN_MOTION_DOT": 1.21e-05, "MEAN_MOTION_DDOT": 0}, "tle": {"line1": "1 32352U 99025CYV 25337.56166020  .00001210  00000+0  35670-3 0  9993", "line2": "2 32352  98.7762 257.3194 0120883 198.3056 161.3763 14.41397629651376"}}, "geometry": {"type": "Point", "coordinates": [40.627755413074375, -76.53063319246931]}}, {"type": "Feature", "properties": {"norad_id": 32353, "name": "FENGYUN 1C DEB", "group": "fengyun-1c-debris", "lat": 47.983839589120265, "lon": -12.451246972719925, "alt_km": 865.1659373826624, "timestamp": "2025-12-06T22:38:43.014468+00:00", "meta": {"OBJECT_NAME": "FENGYUN 1C DEB", "OBJECT_ID": "1999-025CYW", "EPOCH": "2025-11-11T06:05:01.772736", "MEAN_MOTION": 14.03377644, "ECCENTRICITY": 0.01260396, "INCLINATION": 98.9214, "RA_OF_ASC_NODE": 132.3044, "ARG_OF_PERICENTER": 286.1717, "MEAN_ANOMALY": 72.5609, "EPHEMERIS_TYPE": 0, "CLASSIFICATION_TYPE": "U", "NORAD_CAT_ID": 32353, "ELEMENT_SET_NO": 999, "REV_AT_EPOCH": 62752, "BSTAR": 0.0037928572, "MEAN_MOTION_DOT": 6.321e-05, "MEAN_MOTION_DDOT": 0}, "tle": {"line1": "1 32353U 99025CYW 25315.25349274  .00006321  00000+0  37929-2 0  9996", "line2": "2 32353  98.9214 132.3044 0126039 286.1717  72.5609 14.03377644627521"}}, "geometry": {"type": "Point", "coordinates": [-12.451246972719925, 47.983839589120265]}}, {"type": "Feature", "properties": {"norad_id": 32355, "name": "FENGYUN 1C DEB", "group": "fengyun-1c-debris", "lat": -57.91994894905898, "lon": -75.80932218610486, "alt_km": 494.0032586860825, "timestamp": "2025-12-06T22:38:43.014479+00:00", "meta": {"OBJECT_NAME": "FENGYUN 1C DEB", "OBJECT_ID": "1999-025CYY", "EPOCH": "2025-11-30T13:45:12.852288", "MEAN_MOTION": 15.2698689, "ECCENTRICITY": 0.00340494, "INCLINATION": 100.3462, "RA_OF_ASC_NODE": 258.4114, "ARG_OF_PERICENTER": 91.868, "MEAN_ANOMALY": 83.2659, "EPHEMERIS_TYPE": 0, "CLASSIFICATION_TYPE": "U", "NORAD_CAT_ID": 32355, "ELEMENT_SET_NO": 999, "REV_AT_EPOCH": 64804, "BSTAR": 0.0114101, "MEAN_MOTION_DOT": 0.00320062, "MEAN_MOTION_DDOT": 0}, "tle": {"line1": "1 32355U 99025CYY 25334.57306542  .00320062  00000+0  11410-1 0  9992", "line2": "2 32355 100.3462 258.4114 0034049  91.8680  83.2659 15.26986890648042"}}, "geometry": {"type": "Point", "coordinates": [-75.80932218610486, -57.91994894905898]}}, {"type": "Feature", "properties": {"norad_id": 32356, "name": "FENGYUN 1C DEB", "group": "fengyun-1c-debris", "lat": -26.824119558946183, "lon": -152.51849924839271, "alt_km": 837.589473135069, "timestamp": "2025-12-06T22:38:43.014489+00:00", "meta": {"OBJECT_NAME": "FENGYUN 1C DEB", "OBJECT_ID": "1999-025CYZ", "EPOCH": "2025-12-05T21:06:29.701152", "MEAN_MOTION": 14.03310468, "ECCENTRICITY": 0.01246409, "INCLINATION": 102.497, "RA_OF_ASC_NODE": 199.5863, "ARG_OF_PERICENTER": 32.0445, "MEAN_ANOMALY": 328.821, "EPHEMERIS_TYPE": 0, "CLASSIFICATION_TYPE": "U", "NORAD_CAT_ID": 32356, "ELEMENT_SET_NO": 999, "REV_AT_EPOCH": 68291, "BSTAR": 0.0037262863, "MEAN_MOTION_DOT": 6.166e-05, "MEAN_MOTION_DDOT": 0}, "tle": {"line1": "1 32356U 99025CYZ 25339.87951043  .00006166  00000+0  37263-2 0  9994", "line2": "2 32356 102.4970 199.5863 0124640  32.0445 328.8210 14.03310468682910"}}, "geometry": {"type": "Point", "coordinates": [-152.51849924839271, -26.824119558946183]}}, {"type": "Feature", "properties": {"norad_id": 32357, "name": "FENGYUN 1C DEB", "group": "fengyun-1c-debris", "lat": 9.479252767482672, "lon": -157.7731275160072, "alt_km": 695.2275123029349, "timestamp": "2025-12-06T22:38:43.014499+00:00", "meta": {"OBJECT_NAME": "FENGYUN 1C DEB", "OBJECT_ID": "1999-025CZA", "EPOCH": "2025-12-03T20:59:33.570240", "MEAN_MOTION": 13.68494988, "ECCENTRICITY": 0.0493325, "INCLINATION": 98.8601, "RA_OF_ASC_NODE": 17.9025, "ARG_OF_PERICENTER": 211.2254, "MEAN_ANOMALY": 330.7935, "EPHEMERIS_TYPE": 0, "CLASSIFICATION_TYPE": "U", "NORAD_CAT_ID": 32357, "ELEMENT_SET_NO": 999, "REV_AT_EPOCH": 66666, "BSTAR": 0.0053758, "MEAN_MOTION_DOT": 0.00010819, "MEAN_MOTION_DDOT": 0}, "tle": {"line1": "1 32357U 99025CZA 25337.87469410  .00010819  00000+0  53758-2 0  9992", "line2": "2 32357  98.8601  17.9025 0493325 211.2254 330.7935 13.68494988666661"}}, "geometry": {"type": "Point", "coordinates": [-157.7731275160072, 9.479252767482672]}}, {"type": "Feature", "properties": {"norad_id": 32361, "name": "FENGYUN 1C DEB", "group": "fengyun-1c-debris", "lat": 10.012049487697574, "lon": -138.84700032507385, "alt_km": 734.4181900321719, "timestamp": "2025-12-06T22:38:43.014509+00:00", "meta": {"OBJECT_NAME": "FENGYUN 1C DEB", "OBJECT_ID": "1999-025CZE", "EPOCH": "2025-11-30T15:14:44.805984", "MEAN_MOTION": 14.50750787, "ECCENTRICITY": 0.00468278, "INCLINATION": 98.8638, "RA_OF_ASC_NODE": 32.9334, "ARG_OF_PERICENTER": 80.9929, "MEAN_ANOMALY": 279.656, "EPHEMERIS_TYPE": 0, "CLASSIFICATION_TYPE": "U", "NORAD_CAT_ID": 32361, "ELEMENT_SET_NO": 999, "REV_AT_EPOCH": 96169, "BSTAR": 0.0020354767, "MEAN_MOTION_DOT": 8.08e-05, "MEAN_MOTION_DDOT": 0}, "tle": {"line1": "1 32361U 99025CZE 25334.63524081  .00008080  00000+0  20355-2 0  9998", "line2": "2 32361  98.8638  32.9334 0046827  80.9929 279.6560 14.50750787961697"}}, "geometry": {"type": "Point", "coordinates": [-138.84700032507385, 10.012049487697574]}}, {"type": "Feature", "properties": {"norad_id": 32362, "name": "FENGYUN 1C DEB", "group": "fengyun-1c-debris", "lat": 11.320917978894045, "lon": 134.02397505432293, "alt_km": 1150.2490138154135, "timestamp": "2025-12-06T22:38:43.014519+00:00", "meta": {"OBJECT_NAME": "FENGYUN 1C DEB", "OBJECT_ID": "1999-025CZF", "EPOCH": "2025-12-06T09:29:07.337184", "MEAN_MOTION": 13.65125485, "ECCENTRICITY": 0.02756747, "INCLINATION": 99.8444, "RA_OF_ASC_NODE": 311.4753, "ARG_OF_PERICENTER": 301.3044, "MEAN_ANOMALY": 56.1375, "EPHEMERIS_TYPE": 0, "CLASSIFICATION_TYPE": "U", "NORAD_CAT_ID": 32362, "ELEMENT_SET_NO": 999, "REV_AT_EPOCH": 91043, "BSTAR": 0.0062320548, "MEAN_MOTION_DOT": 6.505e-05, "MEAN_MOTION_DDOT": 0}, "tle": {"line1": "1 32362U 99025CZF 25340.39522381  .00006505  00000+0  62321-2 0  9999", "line2": "2 32362  99.8444 311.4753 0275674 301.3044  56.1375 13.65125485910430"}}, "geometry": {"type": "Point", "coordinates": [134.02397505432293, 11.320917978894045]}}, {"type": "Feature", "properties": {"norad_id": 32363, "name": "FENGYUN 1C DEB", "group": "fengyun-1c-debris", "lat": 75.31012665164616, "lon": -95.94298731108573, "alt_km": 415.35395998382955, "timestamp": "2025-12-06T22:38:43.014529+00:00", "meta": {"OBJECT_NAME": "FENGYUN 1C DEB", "OBJECT_ID": "1999-025CZG", "EPOCH": "2025-12-06T03:40:07.296672", "MEAN_MOTION": 15.460546, "ECCENTRICITY": 0.00642337, "INCLINATION": 98.333, "RA_OF_ASC_NODE": 297.1439, "ARG_OF_PERICENTER": 164.1635, "MEAN_ANOMALY": 196.164, "EPHEMERIS_TYPE": 0, "CLASSIFICATION_TYPE": "U", "NORAD_CAT_ID": 32363, "ELEMENT_SET_NO": 999, "REV_AT_EPOCH": 96706, "BSTAR": 0.002261669, "MEAN_MOTION_DOT": 0.00121152, "MEAN_MOTION_DDOT": 0}, "tle": {"line1": "1 32363U 99025CZG 25340.15286223  .00121152  00000+0  22617-2 0  9996", "line2": "2 32363  98.3330 297.1439 0064233 164.1635 196.1640 15.46054600967060"}}, "geometry": {"type": "Point", "coordinates": [-95.94298731108573, 75.31012665164616]}}, {"type": "Feature", "properties": {"norad_id": 32364, "name": "FENGYUN 1C DEB", "group": "fengyun-1c-debris", "lat": -5.606638127888145, "lon": -0.5184660907609288, "alt_km": 753.9615354790803, "timestamp": "2025-12-06T22:38:43.014539+00:00", "meta": {"OBJECT_NAME": "FENGYUN 1C DEB", "OBJECT_ID": "1999-025CZH", "EPOCH": "2025-11-29T08:05:37.624992", "MEAN_MOTION": 14.14317962, "ECCENTRICITY": 0.01349396, "INCLINATION": 98.2918, "RA_OF_ASC_NODE": 173.2369, "ARG_OF_PERICENTER": 222.8285, "MEAN_ANOMALY": 136.2316, "EPHEMERIS_TYPE": 0, "CLASSIFICATION_TYPE": "U", "NORAD_CAT_ID": 32364, "ELEMENT_SET_NO": 999, "REV_AT_EPOCH": 63519, "BSTAR": 0.0022712328, "MEAN_MOTION_DOT": 4.699e-05, "MEAN_MOTION_DDOT": 0}, "tle": {"line1": "1 32364U 99025CZH 25333.33724103  .00004699  00000+0  22712-2 0  9995", "line2": "2 32364  98.2918 173.2369 0134939 222.8285 136.2316 14.14317962635190"}}, "geometry": {"type": "Point", "coordinates": [-0.5184660907609288, -5.606638127888145]}}]}